OBJECT_NAME,OBJECT_ID,EPOCH,MEAN_MOTION,ECCENTRICITY,INCLINATION,RA_OF_ASC_NODE,ARG_OF_PERICENTER,MEAN_ANOMALY,EPHEMERIS_TYPE,CLASSIFICATION_TYPE,NORAD_CAT_ID,ELEMENT_SET_NO,REV_AT_EPOCH,BSTAR,MEAN_MOTION_DOT,MEAN_MOTION_DDOT
FENGYUN 1C DEB,1999-025DDM,2021-09-01T05:28:49.470240,14.81465835,.0156548,98.3525,34.3708,155.2139,205.6698,0,U,33628,999,72428,.52344E-3,.5005E-4,0
FENGYUN 1C DEB,1999-025DDN,2021-08-30T22:56:19.710816,15.12530098,.0068599,98.6087,141.4287,101.3570,259.5375,0,U,33629,999,38755,.19739E-2,.36498E-3,0
FENGYUN 1C DEB,1999-025DDP,2021-08-31T16:39:33.937056,14.13543719,.0141684,98.4593,33.1188,240.4981,118.2000,0,U,33630,999,42289,.14392E-3,.256E-5,0
FENGYUN 1C DEB,1999-025DDR,2021-09-01T10:02:04.938144,14.52768820,.0050342,99.0603,234.2410,145.7176,214.7284,0,U,33632,999,70313,.59038E-3,.2411E-4,0
FENGYUN 1C DEB,1999-025DDS,2021-09-01T09:38:25.156320,14.04504503,.0100012,99.1314,302.1472,210.1754,213.6413,0,U,33633,999,68679,.71836E-3,.1153E-4,0
FENGYUN 1C DEB,1999-025DDV,2021-08-29T20:44:46.430592,14.23855206,.0073627,98.6049,276.8354,0.9729,174.3902,0,U,33636,999,47743,.19129E-3,.407E-5,0
FENGYUN 1C DEB,1999-025DDW,2021-08-26T08:57:17.047872,14.23714421,.010056,98.6498,289.7475,76.9457,284.2924,0,U,33637,999,42430,.2364E-3,.526E-5,0
FENGYUN 1C DEB,1999-025DDX,2021-09-01T00:56:19.589568,13.63220408,.0280951,98.4644,311.3757,102.4182,260.8554,0,U,33638,999,39572,.23977E-3,.213E-5,0
FENGYUN 1C DEB,1999-025DDY,2021-08-23T23:16:59.269152,14.21313983,.006781,98.7940,303.1868,191.7919,168.1673,0,U,33639,999,38149,.35674E-3,.752E-5,0
FENGYUN 1C DEB,1999-025DDZ,2021-08-31T10:23:29.774400,14.38034988,.0103303,98.8975,113.4130,125.9759,235.1060,0,U,33640,999,69815,.11722E-3,.329E-5,0
FENGYUN 1C DEB,1999-025DEC,2021-09-01T08:24:03.504384,14.78630304,.0153726,99.0843,180.9275,96.2246,265.6497,0,U,33643,999,73816,.20189E-3,.1727E-4,0
FENGYUN 1C DEB,1999-025DEE,2021-09-01T08:20:41.792352,14.28097581,.0345985,99.5828,290.1022,280.1213,76.1111,0,U,33645,999,42669,.52321E-3,.2406E-4,0
FENGYUN 1C DEB,1999-025DEF,2021-08-29T05:38:10.824864,13.93150248,.0121753,98.5254,239.0745,207.7917,151.6705,0,U,33646,999,50171,.49917E-3,.652E-5,0
FENGYUN 1C DEB,1999-025DEG,2021-08-31T20:11:23.907552,13.77209933,.0277181,98.2149,276.1399,68.1768,294.8627,0,U,33647,999,41245,.41591E-3,.514E-5,0
FENGYUN 1C DEB,1999-025DEH,2021-08-31T20:42:54.617760,14.10729615,.0068802,98.7606,265.6514,293.9147,65.4827,0,U,33648,999,70870,.41904E-4,.33E-6,0
FENGYUN 1C DEB,1999-025DEK,2021-09-01T00:59:08.307168,13.82506369,.0162232,98.9967,95.6314,339.0996,20.3578,0,U,33650,999,47161,.51593E-3,.576E-5,0
FENGYUN 1C DEB,1999-025DEL,2021-09-01T08:19:30.465696,14.18766333,.0118809,98.8764,284.7646,226.4524,132.6736,0,U,33651,999,42093,.52E-4,.7E-6,0
FENGYUN 1C DEB,1999-025DEQ,2021-09-01T00:24:20.135808,14.53980530,.0106583,98.7696,167.3170,173.8985,186.3537,0,U,33655,999,73613,.18637E-3,.791E-5,0
FENGYUN 1C DEB,1999-025DER,2021-08-31T07:07:16.637376,14.18825175,.0093849,98.5868,264.3418,240.1165,119.0661,0,U,33656,999,40501,.11498E-3,.207E-5,0
FENGYUN 1C DEB,1999-025DET,2021-08-30T23:24:25.292736,13.51930245,.0308756,99.4805,66.0193,174.6118,185.8470,0,U,33658,999,36931,.96476E-3,.812E-5,0
FENGYUN 1C DEB,1999-025DEV,2021-08-31T06:20:47.753376,13.89408320,.0111873,98.5333,249.8204,231.4550,141.1588,0,U,33660,999,69324,.11089E-3,.103E-5,0
FENGYUN 1C DEB,1999-025DEW,2021-08-31T03:48:14.673888,13.66693862,.0243876,98.4138,307.4335,14.9870,11.7291,0,U,33661,999,43048,.25814E-3,.228E-5,0
FENGYUN 1C DEB,1999-025DEY,2021-08-30T15:47:19.724352,14.09098308,.0160473,98.9004,191.0750,217.9310,141.0469,0,U,33663,999,41905,.84258E-3,.1602E-4,0
FENGYUN 1C DEB,1999-025DEZ,2021-09-01T01:00:53.960544,14.01254292,.0166371,98.6429,91.5360,105.2527,256.7100,0,U,33664,999,68823,-.12247E-3,-.247E-5,0
FENGYUN 1C DEB,1999-025DFA,2021-08-30T15:19:30.955008,13.89208397,.0513703,98.8507,20.5867,88.4753,277.5164,0,U,33665,999,70772,.20758E-3,.692E-5,0
FENGYUN 1C DEB,1999-025DFB,2021-08-31T18:06:49.330368,14.65466183,.0076704,98.8802,211.5159,108.1522,13.0170,0,U,33666,999,43592,.42074E-3,.232E-4,0
FENGYUN 1C DEB,1999-025DFD,2021-09-01T00:24:06.075072,14.74736362,.0178365,99.0500,89.0692,134.8925,226.6919,0,U,33668,999,72760,.21711E-3,.1802E-4,0
FENGYUN 1C DEB,1999-025DFJ,2021-08-30T23:10:48.952704,13.92043662,.0112272,99.4371,241.9481,126.2148,263.6285,0,U,33673,999,68109,.36641E-4,.4E-7,0
FENGYUN 1C DEB,1999-025DFK,2021-09-01T10:42:37.481760,13.69067104,.0228262,98.5842,70.3498,94.6634,268.0622,0,U,33674,999,66923,.56281E-3,.549E-5,0
FENGYUN 1C DEB,1999-025DFL,2021-08-31T20:59:25.825344,14.42723098,.0045422,99.1976,260.4849,325.1642,34.6574,0,U,33675,999,45340,.37738E-3,.1221E-4,0
FENGYUN 1C DEB,1999-025DFM,2021-08-30T14:49:34.154688,14.32799586,.0210886,98.9749,170.8533,318.2943,164.0402,0,U,33676,999,42880,.61944E-4,.159E-5,0
FENGYUN 1C DEB,1999-025DFP,2021-08-31T13:58:35.820192,14.36328981,.0236174,99.0297,190.2887,170.1110,190.4844,0,U,33678,999,72573,.90722E-4,.307E-5,0
FENGYUN 1C DEB,1999-025DFQ,2021-08-31T11:01:58.472256,14.48116737,.0320593,99.4156,64.9256,26.6341,335.0924,0,U,33679,999,71199,.1767E-3,.1188E-4,0
FENGYUN 1C DEB,1999-025DFR,2021-09-01T05:47:56.256576,14.75550880,.0067439,99.4489,238.4481,28.8831,37.5732,0,U,33680,999,75651,.86241E-3,.6031E-4,0
FENGYUN 1C DEB,1999-025DFS,2021-08-31T08:05:52.255104,13.97589039,.0104382,99.2372,280.7331,14.6143,47.4363,0,U,33681,999,43615,.3246E-3,.434E-5,0
FENGYUN 1C DEB,1999-025DFT,2021-09-01T08:10:32.719008,14.13021276,.0034771,99.3815,173.7855,152.6797,207.6211,0,U,33682,999,69534,.36323E-3,.633E-5,0
FENGYUN 1C DEB,1999-025DFU,2021-08-31T19:46:49.665216,14.43025701,.0070903,98.2768,99.3411,265.0352,94.2742,0,U,33683,999,70236,.59103E-3,.1996E-4,0
FENGYUN 1C DEB,1999-025DFV,2021-08-31T11:29:21.821856,14.35281642,.0425478,99.0232,154.6949,354.4171,5.2349,0,U,33684,999,70321,.42948E-3,.3432E-4,0
FENGYUN 1C DEB,1999-025DFX,2021-09-01T05:31:01.906752,14.70652104,.0060912,98.8965,243.9140,104.5356,256.2615,0,U,33686,999,46066,.56073E-3,.3452E-4,0
FENGYUN 1C DEB,1999-025DFY,2021-08-30T15:11:37.287744,14.68552357,.0247597,99.0151,26.4827,251.0336,106.3888,0,U,33687,999,48300,.23565E-3,.2102E-4,0
FENGYUN 1C DEB,1999-025DFZ,2021-09-01T08:19:19.134336,14.21146286,.0078411,99.3751,204.1498,67.6993,293.2472,0,U,33688,999,69138,.56827E-3,.1226E-4,0
FENGYUN 1C DEB,1999-025DGA,2021-08-31T17:49:21.273312,14.30824844,.0057786,99.5825,62.3582,339.7134,85.1611,0,U,33689,999,47084,.13474E-3,.307E-5,0
FENGYUN 1C DEB,1999-025DGB,2021-09-01T03:19:11.280864,14.28046963,.004658,98.6796,317.6955,6.6584,353.5206,0,U,33690,999,70776,.33315E-3,.792E-5,0
FENGYUN 1C DEB,1999-025DGC,2021-08-30T02:26:41.525664,14.04844910,.0084634,99.0543,181.8175,142.1054,218.6110,0,U,33691,999,68399,.78236E-3,.1253E-4,0
FENGYUN 1C DEB,1999-025DGD,2021-08-28T10:36:22.180032,14.74821734,.002065,99.1196,304.2252,27.0337,29.9990,0,U,33692,999,70564,.21428E-2,.14369E-3,0
FENGYUN 1C DEB,1999-025DGE,2021-09-01T02:04:13.158624,13.65644926,.0239131,99.2983,106.5495,104.8217,257.9548,0,U,33693,999,66853,.19531E-3,.154E-5,0
FENGYUN 1C DEB,1999-025DGJ,2021-08-26T10:31:44.604480,14.02204922,.0082113,99.0380,323.7251,320.6161,38.9052,0,U,33697,999,71150,.3518E-3,.51E-5,0
FENGYUN 1C DEB,1999-025DGK,2021-08-30T22:57:13.716864,14.49493790,.0152893,99.6084,316.3570,154.5369,206.3455,0,U,33698,999,72930,.72557E-4,.257E-5,0
FENGYUN 1C DEB,1999-025DGL,2021-09-01T10:48:50.530176,14.66896052,.004816,98.2803,232.6925,157.4034,356.1339,0,U,33699,999,43309,.1642E-2,.9298E-4,0
FENGYUN 1C DEB,1999-025DGM,2021-08-31T22:49:27.804864,14.84951593,.0098352,99.1105,147.1152,301.9891,57.1790,0,U,33700,999,32970,.42053E-3,.3829E-4,0
FENGYUN 1C DEB,1999-025DGN,2021-08-23T01:08:48.945408,13.92612009,.0150664,98.6154,269.3376,237.4092,150.9101,0,U,33701,999,68558,.47523E-3,.632E-5,0
FENGYUN 1C DEB,1999-025DGT,2021-09-01T00:06:34.863552,14.52935458,.0122308,98.9179,170.9814,14.6708,345.7985,0,U,33706,999,71363,.71825E-3,.321E-4,0
FENGYUN 1C DEB,1999-025DGU,2021-08-31T17:17:51.472032,14.70953044,.0105006,99.0878,51.2050,9.5505,350.7662,0,U,33707,999,75016,.30044E-3,.1938E-4,0
FENGYUN 1C DEB,1999-025DGV,2021-08-30T10:37:59.907072,14.82061200,.0060654,99.4558,318.0994,202.6326,157.2205,0,U,33708,999,74296,.1383E-2,.11287E-3,0
FENGYUN 1C DEB,1999-025DGW,2021-08-30T01:09:38.051712,15.53060118,.0016323,99.0096,177.5343,63.1387,297.1527,0,U,33709,999,40693,.94232E-2,.639918E-2,0
FENGYUN 1C DEB,1999-025DGX,2021-08-30T00:03:40.014144,14.04208557,.0059472,99.0074,329.1549,205.6077,154.2141,0,U,33710,999,45636,.14634E-3,.191E-5,0
FENGYUN 1C DEB,1999-025DGY,2021-09-01T00:29:06.270144,13.97015317,.0104824,99.3449,257.9482,0.0384,54.9312,0,U,33711,999,70073,.69832E-4,.55E-6,0
FENGYUN 1C DEB,1999-025DHA,2021-08-31T18:36:24.727680,14.69983375,.0167736,99.0963,64.1773,34.4697,326.7249,0,U,33713,999,72217,.21687E-3,.1542E-4,0
FENGYUN 1C DEB,1999-025DHB,2021-08-29T00:29:34.750176,14.42323303,.0053124,99.9158,321.7987,347.6368,12.3510,0,U,33714,999,41619,.7089E-3,.2323E-4,0
FENGYUN 1C DEB,1999-025DHD,2021-08-30T22:00:45.141696,14.30872089,.0094931,98.9860,108.1610,245.6209,113.5041,0,U,33716,999,42769,.34006E-4,.46E-6,0
FENGYUN 1C DEB,1999-025DHF,2021-08-30T04:34:00.950592,13.98002863,.0108907,99.7099,207.9033,245.4739,113.5038,0,U,33718,999,47248,.73475E-3,.1047E-4,0
FENGYUN 1C DEB,1999-025DHG,2021-08-31T09:30:17.538048,14.15719836,.0033066,98.9178,286.5628,236.6033,137.2671,0,U,33719,999,69832,.19123E-3,.332E-5,0
FENGYUN 1C DEB,1999-025DHH,2021-09-01T08:49:09.180768,14.33635020,.0092182,98.3548,285.4642,72.0071,352.7495,0,U,33720,999,70910,.11567E-3,.294E-5,0
FENGYUN 1C DEB,1999-025DHJ,2021-09-01T11:47:16.243008,14.65326830,.012873,98.8636,254.4660,262.0028,96.6549,0,U,33721,999,74620,.16783E-3,.957E-5,0
FENGYUN 1C DEB,1999-025DHK,2021-09-01T07:59:04.509312,14.14869332,.0172056,98.7108,280.7452,69.4296,292.5243,0,U,33722,999,69999,.14683E-3,.285E-5,0
